start=new Date('2023-02-14T00:00:00.000Z').valueOf();
sats=[{"REF_FRAME":"TEME","NORAD_CAT_ID":"52580","REV_AT_EPOCH":"4226","APOAPSIS":"540.654","EPOCH":"2023-02-13T11:22:41.945376","OBJECT_ID":"2022-051AW","INCLINATION":"53.2157","EPHEMERIS_TYPE":"0","MEAN_ANOMALY":"295.0516","TLE_LINE1":"1 52580U 22051AW  23044.47409659  .00003563  00000-0  24185-3 0  9997","GP_ID":"225325294","CENTER_NAME":"EARTH","SEMIMAJOR_AXIS":"6917.880","ARG_OF_PERICENTER":"65.0613","PERIOD":"95.438","TLE_LINE2":"2 52580  53.2157 122.9682 0001314  65.0613 295.0516 15.08840046 42263","MEAN_MOTION_DOT":"0.00003563","ELEMENT_SET_NO":"999","OBJECT_NAME":"STARLINK-3919","DECAY_DATE":null,"TIME_SYSTEM":"UTC","COUNTRY_CODE":"US","CLASSIFICATION_TYPE":"U","PERIAPSIS":"538.836","MEAN_ELEMENT_THEORY":"SGP4","OBJECT_TYPE":"PAYLOAD","LAUNCH_DATE":"2022-05-13","RCS_SIZE":"LARGE","MEAN_MOTION":"15.08840046","MEAN_MOTION_DDOT":"0.0000000000000","FILE":"3789366","SITE":"AFWTR","RA_OF_ASC_NODE":"122.9682","BSTAR":"0.00024185000000","ECCENTRICITY":"0.00013140"},{"RA_OF_ASC_NODE":"110.2837","BSTAR":"0.00001117400000","ECCENTRICITY":"0.00010070","LAUNCH_DATE":"2022-05-13","OBJECT_TYPE":"PAYLOAD","RCS_SIZE":"LARGE","MEAN_MOTION_DDOT":"0.0000000000000","MEAN_MOTION":"15.08837152","SITE":"AFWTR","FILE":"3789366","DECAY_DATE":null,"COUNTRY_CODE":"US","TIME_SYSTEM":"UTC","MEAN_ELEMENT_THEORY":"SGP4","PERIAPSIS":"539.057","CLASSIFICATION_TYPE":"U","PERIOD":"95.438","ARG_OF_PERICENTER":"109.1347","TLE_LINE2":"2 52581  53.2169 110.2837 0001007 109.1347 250.9754 15.08837152 42394","MEAN_MOTION_DOT":"-0.00000110","ELEMENT_SET_NO":"999","OBJECT_NAME":"STARLINK-3915","EPHEMERIS_TYPE":"0","MEAN_ANOMALY":"250.9754","GP_ID":"225325544","TLE_LINE1":"1 52581U 22051AX  23043.95843326 -.00000110  00000-0  11174-4 0  9994","SEMIMAJOR_AXIS":"6917.889","CENTER_NAME":"EARTH","OBJECT_ID":"2022-051AX","INCLINATION":"53.2169","REF_FRAME":"TEME","NORAD_CAT_ID":"52581","APOAPSIS":"540.451","REV_AT_EPOCH":"4239","EPOCH":"2023-02-12T23:00:08.633664"},{"GP_ID":"225325796","TLE_LINE1":"1 52582U 22051AY  23044.42947220  .00012304  00000-0  78932-3 0  9997","CENTER_NAME":"EARTH","SEMIMAJOR_AXIS":"6917.812","EPHEMERIS_TYPE":"0","MEAN_ANOMALY":"278.1328","INCLINATION":"53.2147","OBJECT_ID":"2022-051AY","REV_AT_EPOCH":"4246","APOAPSIS":"540.421","EPOCH":"2023-02-13T10:18:26.398080","REF_FRAME":"TEME","NORAD_CAT_ID":"52582","BSTAR":"0.00078932000000","ECCENTRICITY":"0.00010750","RA_OF_ASC_NODE":"108.1724","SITE":"AFWTR","FILE":"3789366","OBJECT_TYPE":"PAYLOAD","LAUNCH_DATE":"2022-05-13","RCS_SIZE":"LARGE","MEAN_MOTION":"15.08862296","MEAN_MOTION_DDOT":"0.0000000000000","TIME_SYSTEM":"UTC","COUNTRY_CODE":"US","PERIAPSIS":"538.934","MEAN_ELEMENT_THEORY":"SGP4","CLASSIFICATION_TYPE":"U","DECAY_DATE":null,"MEAN_MOTION_DOT":"0.00012304","ELEMENT_SET_NO":"999","OBJECT_NAME":"STARLINK-3886","PERIOD":"95.436","ARG_OF_PERICENTER":"81.9786","TLE_LINE2":"2 52582  53.2147 108.1724 0001075  81.9786 278.1328 15.08862296 42465"},{"SEMIMAJOR_AXIS":"6917.887","CENTER_NAME":"EARTH","TLE_LINE1":"1 52583U 22051AZ  23044.55092001  .00001680  00000-0  12364-3 0  9992","GP_ID":"225326524","MEAN_ANOMALY":"266.1502","EPHEMERIS_TYPE":"0","EPOCH":"2023-02-13T13:13:19.488864","APOAPSIS":"540.625","REV_AT_EPOCH":"4248","NORAD_CAT_ID":"52583","REF_FRAME":"TEME","INCLINATION":"53.2147","OBJECT_ID":"2022-051AZ","FILE":"3789366","SITE":"AFWTR","RCS_SIZE":"LARGE","MEAN_MOTION":"15.08837875","MEAN_MOTION_DDOT":"0.0000000000000","OBJECT_TYPE":"PAYLOAD","LAUNCH_DATE":"2022-05-13","ECCENTRICITY":"0.00012620","BSTAR":"0.00012364000000","RA_OF_ASC_NODE":"107.6283","OBJECT_NAME":"STARLINK-3895","MEAN_MOTION_DOT":"0.00001680","ELEMENT_SET_NO":"999","TLE_LINE2":"2 52583  53.2147 107.6283 0001262  93.9634 266.1502 15.08837875 42481","ARG_OF_PERICENTER":"93.9634","PERIOD":"95.438","CLASSIFICATION_TYPE":"U","MEAN_ELEMENT_THEORY":"SGP4","PERIAPSIS":"538.879","COUNTRY_CODE":"US","TIME_SYSTEM":"UTC","DECAY_DATE":null},{"DECAY_DATE":null,"COUNTRY_CODE":"US","TIME_SYSTEM":"UTC","MEAN_ELEMENT_THEORY":"SGP4","PERIAPSIS":"538.671","CLASSIFICATION_TYPE":"U","PERIOD":"95.438","ARG_OF_PERICENTER":"94.9448","TLE_LINE2":"2 52584  53.2172 109.3795 0001570  94.9448 265.1723 15.08836230 42425","MEAN_MOTION_DOT":"-0.00000091","ELEMENT_SET_NO":"999","OBJECT_NAME":"STARLINK-3922","RA_OF_ASC_NODE":"109.3795","BSTAR":"0.00001240100000","ECCENTRICITY":"0.00015700","LAUNCH_DATE":"2022-05-13","OBJECT_TYPE":"PAYLOAD","MEAN_MOTION_DDOT":"0.0000000000000","RCS_SIZE":"LARGE","MEAN_MOTION":"15.08836230","FILE":"3789366","SITE":"AFWTR","OBJECT_ID":"2022-051BA","INCLINATION":"53.2172","REF_FRAME":"TEME","NORAD_CAT_ID":"52584","APOAPSIS":"540.843","REV_AT_EPOCH":"4242","EPOCH":"2023-02-13T03:51:36.455040","EPHEMERIS_TYPE":"0","MEAN_ANOMALY":"265.1723","GP_ID":"225324796","TLE_LINE1":"1 52584U 22051BA  23044.16083860 -.00000091  00000-0  12401-4 0  9992","SEMIMAJOR_AXIS":"6917.892","CENTER_NAME":"EARTH"},{"ARG_OF_PERICENTER":"114.9259","PERIOD":"95.437","TLE_LINE2":"2 52585  53.2137 107.9612 0000988 114.9259 245.1836 15.08842976 42476","MEAN_MOTION_DOT":"0.00000092","ELEMENT_SET_NO":"999","OBJECT_NAME":"STARLINK-3906","DECAY_DATE":null,"COUNTRY_CODE":"US","TIME_SYSTEM":"UTC","CLASSIFICATION_TYPE":"U","PERIAPSIS":"539.053","MEAN_ELEMENT_THEORY":"SGP4","OBJECT_TYPE":"PAYLOAD","LAUNCH_DATE":"2022-05-13","MEAN_MOTION":"15.08842976","RCS_SIZE":"LARGE","MEAN_MOTION_DDOT":"0.0000000000000","SITE":"AFWTR","FILE":"3789366","RA_OF_ASC_NODE":"107.9612","BSTAR":"0.00002386800000","ECCENTRICITY":"0.00009880","REF_FRAME":"TEME","NORAD_CAT_ID":"52585","REV_AT_EPOCH":"4247","APOAPSIS":"540.420","EPOCH":"2023-02-13T11:27:19.692864","OBJECT_ID":"2022-051BB","INCLINATION":"53.2137","EPHEMERIS_TYPE":"0","MEAN_ANOMALY":"245.1836","TLE_LINE1":"1 52585U 22051BB  23044.47731126  .00000092  00000-0  23868-4 0  9991","GP_ID":"225325046","CENTER_NAME":"EARTH","SEMIMAJOR_AXIS":"6917.871"},{"INCLINATION":"53.2158","OBJECT_ID":"2022-051BC","APOAPSIS":"540.710","REV_AT_EPOCH":"4248","EPOCH":"2023-02-13T13:08:01.228416","REF_FRAME":"TEME","NORAD_CAT_ID":"52586","TLE_LINE1":"1 52586U 22051BC  23044.54723644  .00000498  00000-0  49401-4 0  9997","GP_ID":"225326296","CENTER_NAME":"EARTH","SEMIMAJOR_AXIS":"6917.877","EPHEMERIS_TYPE":"0","MEAN_ANOMALY":"272.0721","TIME_SYSTEM":"UTC","COUNTRY_CODE":"US","CLASSIFICATION_TYPE":"U","MEAN_ELEMENT_THEORY":"SGP4","PERIAPSIS":"538.773","DECAY_DATE":null,"MEAN_MOTION_DOT":"0.00000498","ELEMENT_SET_NO":"999","OBJECT_NAME":"STARLINK-3910","ARG_OF_PERICENTER":"88.0431","PERIOD":"95.437","TLE_LINE2":"2 52586  53.2158 107.6384 0001400  88.0431 272.0721 15.08841185 42480","BSTAR":"0.00004940100000","ECCENTRICITY":"0.00014000","RA_OF_ASC_NODE":"107.6384","FILE":"3789366","SITE":"AFWTR","LAUNCH_DATE":"2022-05-13","OBJECT_TYPE":"PAYLOAD","RCS_SIZE":"LARGE","MEAN_MOTION":"15.08841185","MEAN_MOTION_DDOT":"0.0000000000000"},{"FILE":"3789366","SITE":"AFWTR","OBJECT_TYPE":"PAYLOAD","LAUNCH_DATE":"2022-05-13","MEAN_MOTION_DDOT":"0.0000000000000","RCS_SIZE":"LARGE","MEAN_MOTION":"15.08847818","BSTAR":"0.00024872000000","ECCENTRICITY":"0.00014000","RA_OF_ASC_NODE":"107.6744","MEAN_MOTION_DOT":"0.00003673","ELEMENT_SET_NO":"999","OBJECT_NAME":"STARLINK-3867","ARG_OF_PERICENTER":"112.9593","PERIOD":"95.437","TLE_LINE2":"2 52587  53.2142 107.6744 0001400 112.9593 247.1547 15.08847818 42488","COUNTRY_CODE":"US","TIME_SYSTEM":"UTC","CLASSIFICATION_TYPE":"U","MEAN_ELEMENT_THEORY":"SGP4","PERIAPSIS":"538.753","DECAY_DATE":null,"TLE_LINE1":"1 52587U 22051BD  23044.53987124  .00003673  00000-0  24872-3 0  9994","GP_ID":"225326025","SEMIMAJOR_AXIS":"6917.856","CENTER_NAME":"EARTH","EPHEMERIS_TYPE":"0","MEAN_ANOMALY":"247.1547","REV_AT_EPOCH":"4248","APOAPSIS":"540.690","EPOCH":"2023-02-13T12:57:24.875136","REF_FRAME":"TEME","NORAD_CAT_ID":"52587","INCLINATION":"53.2142","OBJECT_ID":"2022-051BD"},{"TLE_LINE2":"2 52588  53.2145 107.6948 0000815 100.5752 259.5332 15.08862404 42484","PERIOD":"95.436","ARG_OF_PERICENTER":"100.5752","OBJECT_NAME":"STARLINK-3917","MEAN_MOTION_DOT":"0.00030799","ELEMENT_SET_NO":"999","DECAY_DATE":null,"PERIAPSIS":"539.113","MEAN_ELEMENT_THEORY":"SGP4","CLASSIFICATION_TYPE":"U","TIME_SYSTEM":"UTC","COUNTRY_CODE":"US","RCS_SIZE":"LARGE","MEAN_MOTION_DDOT":"0.0000000000000","MEAN_MOTION":"15.08862404","LAUNCH_DATE":"2022-05-13","OBJECT_TYPE":"PAYLOAD","FILE":"3789366","SITE":"AFWTR","RA_OF_ASC_NODE":"107.6948","ECCENTRICITY":"0.00008150","BSTAR":"0.00194360000000","NORAD_CAT_ID":"52588","REF_FRAME":"TEME","EPOCH":"2023-02-13T12:52:07.212576","REV_AT_EPOCH":"4248","APOAPSIS":"540.241","INCLINATION":"53.2145","OBJECT_ID":"2022-051BE","MEAN_ANOMALY":"259.5332","EPHEMERIS_TYPE":"0","SEMIMAJOR_AXIS":"6917.812","CENTER_NAME":"EARTH","GP_ID":"225325295","TLE_LINE1":"1 52588U 22051BE  23044.53619459  .00030799  00000-0  19436-2 0  9996"},{"GP_ID":"225301256","TLE_LINE1":"1 52598U 22052A   23044.64060855 -.00000964  00000-0 -42469-4 0  9997","SEMIMAJOR_AXIS":"6917.903","CENTER_NAME":"EARTH","EPHEMERIS_TYPE":"0","MEAN_ANOMALY":"267.1394","INCLINATION":"53.2151","OBJECT_ID":"2022-052A","REV_AT_EPOCH":"4206","APOAPSIS":"540.751","EPOCH":"2023-02-13T15:22:28.578720","REF_FRAME":"TEME","NORAD_CAT_ID":"52598","BSTAR":"-0.00004246900000","ECCENTRICITY":"0.00014220","RA_OF_ASC_NODE":"272.2190","FILE":"3789324","SITE":"AFETR","LAUNCH_DATE":"2022-05-14","OBJECT_TYPE":"PAYLOAD","RCS_SIZE":"LARGE","MEAN_MOTION_DDOT":"0.0000000000000","MEAN_MOTION":"15.08832713","COUNTRY_CODE":"US","TIME_SYSTEM":"UTC","MEAN_ELEMENT_THEORY":"SGP4","PERIAPSIS":"538.784","CLASSIFICATION_TYPE":"U","DECAY_DATE":null,"ELEMENT_SET_NO":"999","MEAN_MOTION_DOT":"-0.00000964","OBJECT_NAME":"STARLINK-4019","PERIOD":"95.438","ARG_OF_PERICENTER":"92.9761","TLE_LINE2":"2 52598  53.2151 272.2190 0001422  92.9761 267.1394 15.08832713 42066"}];
